{"type": "FeatureCollection", "features": [ {"type": "Feature", "properties": {"norad_id": 44543, "name": "BEIDOU-3 M23 (C45)", "group": "beidou", "lat": -4.484584922740674, "lon": -174.55219977485936, "alt_km": 21514.68369651603, "timestamp": "2025-12-22T04:03:39.434711+00:00", "meta": {"OBJECT_NAME": "BEIDOU-3 M23 (C45)", "OBJECT_ID": "2019-061B", "EPOCH": "2025-12-21T09:48:50.565312", "MEAN_MOTION": 1.86227721, "ECCENTRICITY": 0.00060743, "INCLINATION": 54.3995, "RA_OF_ASC_NODE": 188.6918, "ARG_OF_PERICENTER": 25.4235, "MEAN_ANOMALY": 179.4087, "EPHEMERIS_TYPE": 0, "CLASSIFICATION_TYPE": "U", "NORAD_CAT_ID": 44543, "ELEMENT_SET_NO": 999, "REV_AT_EPOCH": 4248, "BSTAR": 0, "MEAN_MOTION_DOT": 9.5e-07, "MEAN_MOTION_DDOT": 0}, "tle": {"line1": "1 44543U 19061B   25355.40891858  .00000095  00000+0  00000+0 0  9992", "line2": "2 44543  54.3995 188.6918 0006074  25.4235 179.4087  1.86227721 42486"}}, "geometry": {"type": "Point", "coordinates": [-174.55219977485936, -4.484584922740674]}}, {"type": "Feature", "properties": {"norad_id": 44793, "name": "BEIDOU-3 M22 (C44)", "group": "beidou", "lat": -7.3907112249528275, "lon": 131.41895370405456, "alt_km": 21545.415150516725, "timestamp": "2025-12-22T04:03:39.434723+00:00", "meta": {"OBJECT_NAME": "BEIDOU-3 M22 (C44)", "OBJECT_ID": "2019-078A", "EPOCH": "2025-12-21T08:24:25.549344", "MEAN_MOTION": 1.86232186, "ECCENTRICITY": 0.00060493, "INCLINATION": 54.1004, "RA_OF_ASC_NODE": 306.084, "ARG_OF_PERICENTER": 24.1688, "MEAN_ANOMALY": 335.8571, "EPHEMERIS_TYPE": 0, "CLASSIFICATION_TYPE": "U", "NORAD_CAT_ID": 44793, "ELEMENT_SET_NO": 999, "REV_AT_EPOCH": 4133, "BSTAR": 0, "MEAN_MOTION_DOT": -6.2e-07, "MEAN_MOTION_DDOT": 0}, "tle": {"line1": "1 44793U 19078A   25355.35029571 -.00000062  00000+0  00000+0 0  9991", "line2": "2 44793  54.1004 306.0840 0006049  24.1688 335.8571  1.86232186 41332"}}, "geometry": {"type": "Point", "coordinates": [131.41895370405456, -7.3907112249528275]}}, {"type": "Feature", "properties": {"norad_id": 44794, "name": "BEIDOU-3 M21 (C43)", "group": "beidou", "lat": 53.551857735027355, "lon": 47.29222382807141, "alt_km": 21520.850061354337, "timestamp": "2025-12-22T04:03:39.434734+00:00", "meta": {"OBJECT_NAME": "BEIDOU-3 M21 (C43)", "OBJECT_ID": "2019-078B", "EPOCH": "2025-12-21T11:42:57.580416", "MEAN_MOTION": 1.86227937, "ECCENTRICITY": 0.0004275, "INCLINATION": 54.0738, "RA_OF_ASC_NODE": 306.0442, "ARG_OF_PERICENTER": 12.7061, "MEAN_ANOMALY": 347.3029, "EPHEMERIS_TYPE": 0, "CLASSIFICATION_TYPE": "U", "NORAD_CAT_ID": 44794, "ELEMENT_SET_NO": 999, "REV_AT_EPOCH": 4134, "BSTAR": 0, "MEAN_MOTION_DOT": -6.1e-07, "MEAN_MOTION_DDOT": 0}, "tle": {"line1": "1 44794U 19078B   25355.48816644 -.00000061  00000+0  00000+0 0  9990", "line2": "2 44794  54.0738 306.0442 0004275  12.7061 347.3029  1.86227937 41346"}}, "geometry": {"type": "Point", "coordinates": [47.29222382807141, 53.551857735027355]}}, {"type": "Feature", "properties": {"norad_id": 44864, "name": "BEIDOU-3 M19 (C41)", "group": "beidou", "lat": -50.35709387181949, "lon": 15.419438186758557, "alt_km": 21483.000277793002, "timestamp": "2025-12-22T04:03:39.434745+00:00", "meta": {"OBJECT_NAME": "BEIDOU-3 M19 (C41)", "OBJECT_ID": "2019-090A", "EPOCH": "2025-12-21T08:18:55.694880", "MEAN_MOTION": 1.86231675, "ECCENTRICITY": 0.00183109, "INCLINATION": 56.3999, "RA_OF_ASC_NODE": 68.6763, "ARG_OF_PERICENTER": 285.0239, "MEAN_ANOMALY": 175.8266, "EPHEMERIS_TYPE": 0, "CLASSIFICATION_TYPE": "U", "NORAD_CAT_ID": 44864, "ELEMENT_SET_NO": 999, "REV_AT_EPOCH": 4092, "BSTAR": 0, "MEAN_MOTION_DOT": -3.6e-07, "MEAN_MOTION_DDOT": 0}, "tle": {"line1": "1 44864U 19090A   25355.34647795 -.00000036  00000+0  00000+0 0  9998", "line2": "2 44864  56.3999  68.6763 0018310 285.0239 175.8266  1.86231675 40926"}}, "geometry": {"type": "Point", "coordinates": [15.419438186758557, -50.35709387181949]}}, {"type": "Feature", "properties": {"norad_id": 44865, "name": "BEIDOU-3 M20 (C42)", "group": "beidou", "lat": 18.33997401381933, "lon": 81.41437887024021, "alt_km": 21522.071959461042, "timestamp": "2025-12-22T04:03:39.434755+00:00", "meta": {"OBJECT_NAME": "BEIDOU-3 M20 (C42)", "OBJECT_ID": "2019-090B", "EPOCH": "2025-12-21T01:49:05.066976", "MEAN_MOTION": 1.86231552, "ECCENTRICITY": 0.00154797, "INCLINATION": 56.4014, "RA_OF_ASC_NODE": 68.7196, "ARG_OF_PERICENTER": 297.2086, "MEAN_ANOMALY": 71.7471, "EPHEMERIS_TYPE": 0, "CLASSIFICATION_TYPE": "U", "NORAD_CAT_ID": 44865, "ELEMENT_SET_NO": 999, "REV_AT_EPOCH": 4090, "BSTAR": 0, "MEAN_MOTION_DOT": -3.8e-07, "MEAN_MOTION_DDOT": 0}, "tle": {"line1": "1 44865U 19090B   25355.07575309 -.00000038  00000+0  00000+0 0  9992", "line2": "2 44865  56.4014  68.7196 0015479 297.2086  71.7471  1.86231552 40909"}}, "geometry": {"type": "Point", "coordinates": [81.41437887024021, 18.33997401381933]}}, {"type": "Feature", "properties": {"norad_id": 45344, "name": "BEIDOU-3 G2 (C60)", "group": "beidou", "lat": -0.36400052187693954, "lon": -128.09967643569118, "alt_km": 35779.603058083034, "timestamp": "2025-12-22T04:03:39.434767+00:00", "meta": {"OBJECT_NAME": "BEIDOU-3 G2 (C60)", "OBJECT_ID": "2020-017A", "EPOCH": "2025-12-19T13:38:45.370752", "MEAN_MOTION": 1.00273166, "ECCENTRICITY": 0.0002079, "INCLINATION": 2.5096, "RA_OF_ASC_NODE": 44.0024, "ARG_OF_PERICENTER": 233.0917, "MEAN_ANOMALY": 96.0359, "EPHEMERIS_TYPE": 0, "CLASSIFICATION_TYPE": "U", "NORAD_CAT_ID": 45344, "ELEMENT_SET_NO": 999, "REV_AT_EPOCH": 2145, "BSTAR": 0, "MEAN_MOTION_DOT": -1.18e-06, "MEAN_MOTION_DDOT": 0}, "tle": {"line1": "1 45344U 20017A   25353.56858068 -.00000118  00000+0  00000+0 0  9993", "line2": "2 45344   2.5096  44.0024 0002079 233.0917  96.0359  1.00273166 21451"}}, "geometry": {"type": "Point", "coordinates": [-128.09967643569118, -0.36400052187693954]}}, {"type": "Feature", "properties": {"norad_id": 45807, "name": "BEIDOU-3 G3 (C61)", "group": "beidou", "lat": -0.5701904252565356, "lon": -97.62455241259791, "alt_km": 35797.75185329065, "timestamp": "2025-12-22T04:03:39.434779+00:00", "meta": {"OBJECT_NAME": "BEIDOU-3 G3 (C61)", "OBJECT_ID": "2020-040A", "EPOCH": "2025-12-21T13:52:43.971744", "MEAN_MOTION": 1.00269819, "ECCENTRICITY": 0.0006499, "INCLINATION": 2.0115, "RA_OF_ASC_NODE": 66.6552, "ARG_OF_PERICENTER": 309.2812, "MEAN_ANOMALY": 33.2123, "EPHEMERIS_TYPE": 0, "CLASSIFICATION_TYPE": "U", "NORAD_CAT_ID": 45807, "ELEMENT_SET_NO": 999, "REV_AT_EPOCH": 2028, "BSTAR": 0, "MEAN_MOTION_DOT": -3.32e-06, "MEAN_MOTION_DDOT": 0}, "tle": {"line1": "1 45807U 20040A   25355.57828671 -.00000332  00000+0  00000+0 0  9991", "line2": "2 45807   2.0115  66.6552 0006499 309.2812  33.2123  1.00269819 20280"}}, "geometry": {"type": "Point", "coordinates": [-97.62455241259791, -0.5701904252565356]}}, {"type": "Feature", "properties": {"norad_id": 56564, "name": "BEIDOU-3 G4 (C62)", "group": "beidou", "lat": 0.10777648762377823, "lon": -48.0403241784394, "alt_km": 35795.128089429396, "timestamp": "2025-12-22T04:03:39.434791+00:00", "meta": {"OBJECT_NAME": "BEIDOU-3 G4 (C62)", "OBJECT_ID": "2023-066A", "EPOCH": "2025-12-21T19:42:49.398048", "MEAN_MOTION": 1.0027136, "ECCENTRICITY": 0.0002682, "INCLINATION": 0.7961, "RA_OF_ASC_NODE": 302.7489, "ARG_OF_PERICENTER": 226.7676, "MEAN_ANOMALY": 16.8846, "EPHEMERIS_TYPE": 0, "CLASSIFICATION_TYPE": "U", "NORAD_CAT_ID": 56564, "ELEMENT_SET_NO": 999, "REV_AT_EPOCH": 961, "BSTAR": 0, "MEAN_MOTION_DOT": -8.8e-07, "MEAN_MOTION_DDOT": 0}, "tle": {"line1": "1 56564U 23066A   25355.82140507 -.00000088  00000+0  00000+0 0  9995", "line2": "2 56564   0.7961 302.7489 0002682 226.7676  16.8846  1.00271360  9617"}}, "geometry": {"type": "Point", "coordinates": [-48.0403241784394, 0.10777648762377823]}}, {"type": "Feature", "properties": {"norad_id": 58654, "name": "BEIDOU-3 M28 (C50)", "group": "beidou", "lat": 35.10905415463844, "lon": 97.06166943834405, "alt_km": 21528.82829204997, "timestamp": "2025-12-22T04:03:39.434802+00:00", "meta": {"OBJECT_NAME": "BEIDOU-3 M28 (C50)", "OBJECT_ID": "2023-207A", "EPOCH": "2025-12-18T08:16:11.764704", "MEAN_MOTION": 1.86229821, "ECCENTRICITY": 0.00026501, "INCLINATION": 55.5892, "RA_OF_ASC_NODE": 68.4116, "ARG_OF_PERICENTER": 272.4264, "MEAN_ANOMALY": 87.5728, "EPHEMERIS_TYPE": 0, "CLASSIFICATION_TYPE": "U", "NORAD_CAT_ID": 58654, "ELEMENT_SET_NO": 999, "REV_AT_EPOCH": 1347, "BSTAR": 0, "MEAN_MOTION_DOT": -6.6e-07, "MEAN_MOTION_DDOT": 0}, "tle": {"line1": "1 58654U 23207A   25352.34458061 -.00000066  00000+0  00000+0 0  9991", "line2": "2 58654  55.5892  68.4116 0002650 272.4264  87.5728  1.86229821 13471"}}, "geometry": {"type": "Point", "coordinates": [97.06166943834405, 35.10905415463844]}}, {"type": "Feature", "properties": {"norad_id": 58655, "name": "BEIDOU-3 M26 (C48)", "group": "beidou", "lat": 0.11395559875183305, "lon": -111.79038431077433, "alt_km": 21526.178530434325, "timestamp": "2025-12-22T04:03:39.434814+00:00", "meta": {"OBJECT_NAME": "BEIDOU-3 M26 (C48)", "OBJECT_ID": "2023-207B", "EPOCH": "2025-12-21T08:44:02.320800", "MEAN_MOTION": 1.8623129, "ECCENTRICITY": 0.0004111, "INCLINATION": 55.5938, "RA_OF_ASC_NODE": 68.2956, "ARG_OF_PERICENTER": 259.2953, "MEAN_ANOMALY": 100.7044, "EPHEMERIS_TYPE": 0, "CLASSIFICATION_TYPE": "U", "NORAD_CAT_ID": 58655, "ELEMENT_SET_NO": 999, "REV_AT_EPOCH": 1351, "BSTAR": 0, "MEAN_MOTION_DOT": -3.7e-07, "MEAN_MOTION_DDOT": 0}, "tle": {"line1": "1 58655U 23207B   25355.36391575 -.00000037  00000+0  00000+0 0  9991", "line2": "2 58655  55.5938  68.2956 0004111 259.2953 100.7044  1.86231290 13512"}}, "geometry": {"type": "Point", "coordinates": [-111.79038431077433, 0.11395559875183305]}}]}